CCSDS_OMM_VERS = 2.0
CREATION_DATE  = 
ORIGINATOR     = 

OBJECT_NAME    = SDA-1676
OBJECT_ID      = 2025-230N
CENTER_NAME    = EARTH
REF_FRAME      = TEME
TIME_SYSTEM    = UTC
MEAN_ELEMENT_THEORY = SGP/SGP4

EPOCH          = 2025-10-29T19:24:07.870752
MEAN_MOTION    = 13.84573491
ECCENTRICITY   = .00029752
INCLINATION    = 81.3014
RA_OF_ASC_NODE = 65.3574
ARG_OF_PERICENTER = 68.1526
MEAN_ANOMALY   = 291.9947

EPHEMERIS_TYPE = 0
CLASSIFICATION_TYPE = U
NORAD_CAT_ID   = 65986
ELEMENT_SET_NO = 999
REV_AT_EPOCH   = 192
BSTAR          = .19746576E-3
MEAN_MOTION_DOT = .233E-5
MEAN_MOTION_DDOT = 0

CCSDS_OMM_VERS = 2.0
CREATION_DATE  = 
ORIGINATOR     = 

OBJECT_NAME    = SDA-1677
OBJECT_ID      = 2025-230P
CENTER_NAME    = EARTH
REF_FRAME      = TEME
TIME_SYSTEM    = UTC
MEAN_ELEMENT_THEORY = SGP/SGP4

EPOCH          = 2025-10-29T19:22:53.897664
MEAN_MOTION    = 13.84658790
ECCENTRICITY   = .00033079
INCLINATION    = 81.2988
RA_OF_ASC_NODE = 65.3535
ARG_OF_PERICENTER = 72.9577
MEAN_ANOMALY   = 287.1942

EPHEMERIS_TYPE = 0
CLASSIFICATION_TYPE = U
NORAD_CAT_ID   = 65987
ELEMENT_SET_NO = 999
REV_AT_EPOCH   = 192
BSTAR          = .1661704E-3
MEAN_MOTION_DOT = .199E-5
MEAN_MOTION_DDOT = 0

CCSDS_OMM_VERS = 2.0
CREATION_DATE  = 
ORIGINATOR     = 

OBJECT_NAME    = SDA-1678
OBJECT_ID      = 2025-230Q
CENTER_NAME    = EARTH
REF_FRAME      = TEME
TIME_SYSTEM    = UTC
MEAN_ELEMENT_THEORY = SGP/SGP4

EPOCH          = 2025-10-29T17:26:44.199744
MEAN_MOTION    = 13.85508728
ECCENTRICITY   = .00049703
INCLINATION    = 81.3020
RA_OF_ASC_NODE = 65.4156
ARG_OF_PERICENTER = 122.7140
MEAN_ANOMALY   = 237.4498

EPHEMERIS_TYPE = 0
CLASSIFICATION_TYPE = U
NORAD_CAT_ID   = 65988
ELEMENT_SET_NO = 999
REV_AT_EPOCH   = 191
BSTAR          = .2387459E-3
MEAN_MOTION_DOT = .284E-5
MEAN_MOTION_DDOT = 0

CCSDS_OMM_VERS = 2.0
CREATION_DATE  = 
ORIGINATOR     = 

OBJECT_NAME    = SDA-1679
OBJECT_ID      = 2025-230R
CENTER_NAME    = EARTH
REF_FRAME      = TEME
TIME_SYSTEM    = UTC
MEAN_ELEMENT_THEORY = SGP/SGP4

EPOCH          = 2025-10-29T20:57:36.998496
MEAN_MOTION    = 13.85309691
ECCENTRICITY   = .00051295
INCLINATION    = 81.3017
RA_OF_ASC_NODE = 65.2849
ARG_OF_PERICENTER = 111.3780
MEAN_ANOMALY   = 248.7925

EPHEMERIS_TYPE = 0
CLASSIFICATION_TYPE = U
NORAD_CAT_ID   = 65989
ELEMENT_SET_NO = 999
REV_AT_EPOCH   = 193
BSTAR          = .3991006E-3
MEAN_MOTION_DOT = .465E-5
MEAN_MOTION_DDOT = 0

CCSDS_OMM_VERS = 2.0
CREATION_DATE  = 
ORIGINATOR     = 

OBJECT_NAME    = SDA-1680
OBJECT_ID      = 2025-230S
CENTER_NAME    = EARTH
REF_FRAME      = TEME
TIME_SYSTEM    = UTC
MEAN_ELEMENT_THEORY = SGP/SGP4

EPOCH          = 2025-10-29T19:15:21.349152
MEAN_MOTION    = 13.85186297
ECCENTRICITY   = .00050467
INCLINATION    = 81.3009
RA_OF_ASC_NODE = 65.3486
ARG_OF_PERICENTER = 104.5913
MEAN_ANOMALY   = 255.5804

EPHEMERIS_TYPE = 0
CLASSIFICATION_TYPE = U
NORAD_CAT_ID   = 65990
ELEMENT_SET_NO = 999
REV_AT_EPOCH   = 192
BSTAR          = .24452356E-3
MEAN_MOTION_DOT = .289E-5
MEAN_MOTION_DDOT = 0

CCSDS_OMM_VERS = 2.0
CREATION_DATE  = 
ORIGINATOR     = 

OBJECT_NAME    = SDA-1681
OBJECT_ID      = 2025-230T
CENTER_NAME    = EARTH
REF_FRAME      = TEME
TIME_SYSTEM    = UTC
MEAN_ELEMENT_THEORY = SGP/SGP4

EPOCH          = 2025-10-29T20:58:12.756864
MEAN_MOTION    = 13.85267488
ECCENTRICITY   = .00051285
INCLINATION    = 81.3007
RA_OF_ASC_NODE = 65.2790
ARG_OF_PERICENTER = 109.0780
MEAN_ANOMALY   = 251.0933

EPHEMERIS_TYPE = 0
CLASSIFICATION_TYPE = U
NORAD_CAT_ID   = 65991
ELEMENT_SET_NO = 999
REV_AT_EPOCH   = 193
BSTAR          = .3514462E-3
MEAN_MOTION_DOT = .411E-5
MEAN_MOTION_DDOT = 0

CCSDS_OMM_VERS = 2.0
CREATION_DATE  = 
ORIGINATOR     = 

OBJECT_NAME    = SDA-1682
OBJECT_ID      = 2025-230U
CENTER_NAME    = EARTH
REF_FRAME      = TEME
TIME_SYSTEM    = UTC
MEAN_ELEMENT_THEORY = SGP/SGP4

EPOCH          = 2025-10-29T19:20:26.408544
MEAN_MOTION    = 13.84830541
ECCENTRICITY   = .00038531
INCLINATION    = 81.3034
RA_OF_ASC_NODE = 65.3573
ARG_OF_PERICENTER = 83.1184
MEAN_ANOMALY   = 277.0411

EPHEMERIS_TYPE = 0
CLASSIFICATION_TYPE = U
NORAD_CAT_ID   = 65992
ELEMENT_SET_NO = 999
REV_AT_EPOCH   = 192
BSTAR          = .14863143E-3
MEAN_MOTION_DOT = .179E-5
MEAN_MOTION_DDOT = 0

CCSDS_OMM_VERS = 2.0
CREATION_DATE  = 
ORIGINATOR     = 

OBJECT_NAME    = SDA-1683
OBJECT_ID      = 2025-230V
CENTER_NAME    = EARTH
REF_FRAME      = TEME
TIME_SYSTEM    = UTC
MEAN_ELEMENT_THEORY = SGP/SGP4

EPOCH          = 2025-10-29T21:03:19.443168
MEAN_MOTION    = 13.84910989
ECCENTRICITY   = .00041771
INCLINATION    = 81.3024
RA_OF_ASC_NODE = 65.2876
ARG_OF_PERICENTER = 85.9452
MEAN_ANOMALY   = 274.2182

EPHEMERIS_TYPE = 0
CLASSIFICATION_TYPE = U
NORAD_CAT_ID   = 65993
ELEMENT_SET_NO = 999
REV_AT_EPOCH   = 193
BSTAR          = .17059263E-3
MEAN_MOTION_DOT = .204E-5
MEAN_MOTION_DDOT = 0

CCSDS_OMM_VERS = 2.0
CREATION_DATE  = 
ORIGINATOR     = 

OBJECT_NAME    = SDA-1684
OBJECT_ID      = 2025-230W
CENTER_NAME    = EARTH
REF_FRAME      = TEME
TIME_SYSTEM    = UTC
MEAN_ELEMENT_THEORY = SGP/SGP4

EPOCH          = 2025-10-29T19:21:21.941280
MEAN_MOTION    = 13.84766153
ECCENTRICITY   = .00039901
INCLINATION    = 81.3007
RA_OF_ASC_NODE = 65.3544
ARG_OF_PERICENTER = 73.4349
MEAN_ANOMALY   = 286.7246

EPHEMERIS_TYPE = 0
CLASSIFICATION_TYPE = U
NORAD_CAT_ID   = 65994
ELEMENT_SET_NO = 999
REV_AT_EPOCH   = 192
BSTAR          = .2250426E-3
MEAN_MOTION_DOT = .265E-5
MEAN_MOTION_DDOT = 0

CCSDS_OMM_VERS = 2.0
CREATION_DATE  = 
ORIGINATOR     = 

OBJECT_NAME    = HULIANWANG DIGUI 12A
OBJECT_ID      = 2025-231A
CENTER_NAME    = EARTH
REF_FRAME      = TEME
TIME_SYSTEM    = UTC
MEAN_ELEMENT_THEORY = SGP/SGP4

EPOCH          = 2025-10-29T16:40:41.160576
MEAN_MOTION    = 14.03846388
ECCENTRICITY   = .00064376
INCLINATION    = 50.0007
RA_OF_ASC_NODE = 302.2192
ARG_OF_PERICENTER = 300.6333
MEAN_ANOMALY   = 59.3936

EPHEMERIS_TYPE = 0
CLASSIFICATION_TYPE = U
NORAD_CAT_ID   = 65995
ELEMENT_SET_NO = 999
REV_AT_EPOCH   = 192
BSTAR          = .18963903E-3
MEAN_MOTION_DOT = .149E-5
MEAN_MOTION_DDOT = 0

CCSDS_OMM_VERS = 2.0
CREATION_DATE  = 
ORIGINATOR     = 

OBJECT_NAME    = HULIANWANG DIGUI 12B
OBJECT_ID      = 2025-231B
CENTER_NAME    = EARTH
REF_FRAME      = TEME
TIME_SYSTEM    = UTC
MEAN_ELEMENT_THEORY = SGP/SGP4

EPOCH          = 2025-10-29T16:44:50.870400
MEAN_MOTION    = 14.03877193
ECCENTRICITY   = .00090074
INCLINATION    = 49.9995
RA_OF_ASC_NODE = 302.2333
ARG_OF_PERICENTER = 306.2252
MEAN_ANOMALY   = 53.7819

EPHEMERIS_TYPE = 0
CLASSIFICATION_TYPE = U
NORAD_CAT_ID   = 65996
ELEMENT_SET_NO = 999
REV_AT_EPOCH   = 192
BSTAR          = .15674647E-3
MEAN_MOTION_DOT = .97E-6
MEAN_MOTION_DDOT = 0

CCSDS_OMM_VERS = 2.0
CREATION_DATE  = 
ORIGINATOR     = 

OBJECT_NAME    = HULIANWANG DIGUI 12C
OBJECT_ID      = 2025-231C
CENTER_NAME    = EARTH
REF_FRAME      = TEME
TIME_SYSTEM    = UTC
MEAN_ELEMENT_THEORY = SGP/SGP4

EPOCH          = 2025-10-29T16:39:12.160800
MEAN_MOTION    = 14.03880722
ECCENTRICITY   = .00075535
INCLINATION    = 49.9972
RA_OF_ASC_NODE = 302.2081
ARG_OF_PERICENTER = 305.5564
MEAN_ANOMALY   = 54.4636

EPHEMERIS_TYPE = 0
CLASSIFICATION_TYPE = U
NORAD_CAT_ID   = 65997
ELEMENT_SET_NO = 999
REV_AT_EPOCH   = 192
BSTAR          = .14300403E-3
MEAN_MOTION_DOT = .75E-6
MEAN_MOTION_DDOT = 0

