SDA-1676                
1 65986U 25230N   25302.80842443  .00000233  00000+0  19747-3 0  9999
2 65986  81.3014  65.3574 0002975  68.1526 291.9947 13.84573491  1922
SDA-1677                
1 65987U 25230P   25302.80756826  .00000199  00000+0  16617-3 0  9993
2 65987  81.2988  65.3535 0003307  72.9577 287.1942 13.84658790  1926
SDA-1678                
1 65988U 25230Q   25302.72690046  .00000284  00000+0  23875-3 0  9995
2 65988  81.3020  65.4156 0004970 122.7140 237.4498 13.85508728  1911
SDA-1679                
1 65989U 25230R   25302.87334489  .00000465  00000+0  39910-3 0  9996
2 65989  81.3017  65.2849 0005129 111.3780 248.7925 13.85309691  1936
SDA-1680                
1 65990U 25230S   25302.80233043  .00000289  00000+0  24452-3 0  9994
2 65990  81.3009  65.3486 0005046 104.5913 255.5804 13.85186297  1923
SDA-1681                
1 65991U 25230T   25302.87375876  .00000411  00000+0  35145-3 0  9991
2 65991  81.3007  65.2790 0005128 109.0780 251.0933 13.85267488  1939
SDA-1682                
1 65992U 25230U   25302.80586121  .00000179  00000+0  14863-3 0  9997
2 65992  81.3034  65.3573 0003853  83.1184 277.0411 13.84830541  1926
SDA-1683                
1 65993U 25230V   25302.87730837  .00000204  00000+0  17059-3 0  9999
2 65993  81.3024  65.2876 0004177  85.9452 274.2182 13.84910989  1939
SDA-1684                
1 65994U 25230W   25302.80650395  .00000265  00000+0  22504-3 0  9991
2 65994  81.3007  65.3544 0003990  73.4349 286.7246 13.84766153  1923
HULIANWANG DIGUI 12A    
1 65995U 25231A   25302.69492084  .00000149  00000+0  18964-3 0  9995
2 65995  50.0007 302.2192 0006437 300.6333  59.3936 14.03846388  1927
HULIANWANG DIGUI 12B    
1 65996U 25231B   25302.69781100  .00000097  00000+0  15675-3 0  9994
2 65996  49.9995 302.2333 0009007 306.2252  53.7819 14.03877193  1922
HULIANWANG DIGUI 12C    
1 65997U 25231C   25302.69389075  .00000075  00000+0  14300-3 0  9990
2 65997  49.9972 302.2081 0007553 305.5564  54.4636 14.03880722  1927
